{
  "schema": "int-telemetry-real-tle-snapshot/v1",
  "source": "celestrak",
  "group": "IRIDIUM-NEXT",
  "format": "celestrak-gp-json",
  "source_url": "https://celestrak.org/NORAD/elements/gp.php?GROUP=IRIDIUM-NEXT&FORMAT=JSON",
  "downloaded_at": "2026-07-07T06:33:54.787Z",
  "generated_at": "2026-07-07T06:33:56.153Z",
  "fingerprint": "75f53801",
  "shell_id": "iridium-next-real-86.4deg-785km",
  "catalog_count": 80,
  "shell_count": 67,
  "selected_count": 66,
  "mean_altitude_km": 784.8,
  "mean_inclination_deg": 86.3965,
  "mean_mean_motion_rev_per_day": 14.34218389,
  "layout": {
    "planes": 6,
    "satellites_per_plane": 11,
    "selection_strategy": "target-shell-raan-clusters-even-slot-sampling",
    "raan_cluster_threshold_deg": 6,
    "target_inclination_deg": 86.4,
    "target_altitude_km": 781,
    "selected_shell_key": "86.5deg-800km",
    "target_shell_distance": 4.16
  },
  "satellites": [
    {
      "satellite_id": "P05-S11",
      "norad_id": 42803,
      "satellite_name": "IRIDIUM 113",
      "cospar_id": "2017-039A",
      "shell_id": "iridium-next-real-86.4deg-785km",
      "plane_id": 4,
      "slot_id": 10,
      "epoch": "2026-07-06T20:17:14.968032",
      "inclination": 86.3988,
      "raan": 313.9615,
      "eccentricity": 0.0002138,
      "argument_of_perigee": 90.70580000000001,
      "mean_anomaly": 269.4383,
      "mean_motion": 14.3421715,
      "bstar": 0.00010559,
      "status": "active",
      "raw_omm": {
        "OBJECT_NAME": "IRIDIUM 113",
        "OBJECT_ID": "2017-039A",
        "EPOCH": "2026-07-06T20:17:14.968032",
        "MEAN_MOTION": 14.3421715,
        "ECCENTRICITY": 0.0002138,
        "INCLINATION": 86.3988,
        "RA_OF_ASC_NODE": 313.9615,
        "ARG_OF_PERICENTER": 90.7058,
        "MEAN_ANOMALY": 269.4383,
        "EPHEMERIS_TYPE": 0,
        "CLASSIFICATION_TYPE": "U",
        "NORAD_CAT_ID": 42803,
        "ELEMENT_SET_NO": 999,
        "REV_AT_EPOCH": 47400,
        "BSTAR": 0.00010559,
        "MEAN_MOTION_DOT": 0.00000315,
        "MEAN_MOTION_DDOT": 0
      },
      "source": "celestrak",
      "source_url": "https://celestrak.org/NORAD/elements/gp.php?GROUP=IRIDIUM-NEXT&FORMAT=JSON",
      "catalog_fingerprint": "75f53801"
    },
    {
      "satellite_id": "P06-S01",
      "norad_id": 43929,
      "satellite_name": "IRIDIUM 171",
      "cospar_id": "2019-002H",
      "shell_id": "iridium-next-real-86.4deg-785km",
      "plane_id": 5,
      "slot_id": 0,
      "epoch": "2026-07-06T11:41:34.815264",
      "inclination": 86.3992,
      "raan": 345.8107,
      "eccentricity": 0.0002186,
      "argument_of_perigee": 94.67560000000003,
      "mean_anomaly": 265.4689000000001,
      "mean_motion": 14.34218495,
      "bstar": 0.000025298,
      "status": "active",
      "raw_omm": {
        "OBJECT_NAME": "IRIDIUM 171",
        "OBJECT_ID": "2019-002H",
        "EPOCH": "2026-07-06T11:41:34.815264",
        "MEAN_MOTION": 14.34218495,
        "ECCENTRICITY": 0.0002186,
        "INCLINATION": 86.3992,
        "RA_OF_ASC_NODE": 345.8107,
        "ARG_OF_PERICENTER": 94.6756,
        "MEAN_ANOMALY": 265.4689,
        "EPHEMERIS_TYPE": 0,
        "CLASSIFICATION_TYPE": "U",
        "NORAD_CAT_ID": 43929,
        "ELEMENT_SET_NO": 999,
        "REV_AT_EPOCH": 39172,
        "BSTAR": 0.000025298,
        "MEAN_MOTION_DOT": 9.1e-7,
        "MEAN_MOTION_DDOT": 0
      },
      "source": "celestrak",
      "source_url": "https://celestrak.org/NORAD/elements/gp.php?GROUP=IRIDIUM-NEXT&FORMAT=JSON",
      "catalog_fingerprint": "75f53801"
    },
    {
      "satellite_id": "P06-S02",
      "norad_id": 43931,
      "satellite_name": "IRIDIUM 167",
      "cospar_id": "2019-002K",
      "shell_id": "iridium-next-real-86.4deg-785km",
      "plane_id": 5,
      "slot_id": 1,
      "epoch": "2026-07-06T11:32:26.807712",
      "inclination": 86.3984,
      "raan": 345.5274999999999,
      "eccentricity": 0.0002139,
      "argument_of_perigee": 98.9932,
      "mean_anomaly": 261.15059999999994,
      "mean_motion": 14.34218223,
      "bstar": 0.000014477,
      "status": "active",
      "raw_omm": {
        "OBJECT_NAME": "IRIDIUM 167",
        "OBJECT_ID": "2019-002K",
        "EPOCH": "2026-07-06T11:32:26.807712",
        "MEAN_MOTION": 14.34218223,
        "ECCENTRICITY": 0.0002139,
        "INCLINATION": 86.3984,
        "RA_OF_ASC_NODE": 345.5275,
        "ARG_OF_PERICENTER": 98.9932,
        "MEAN_ANOMALY": 261.1506,
        "EPHEMERIS_TYPE": 0,
        "CLASSIFICATION_TYPE": "U",
        "NORAD_CAT_ID": 43931,
        "ELEMENT_SET_NO": 999,
        "REV_AT_EPOCH": 39172,
        "BSTAR": 0.000014477,
        "MEAN_MOTION_DOT": 6e-7,
        "MEAN_MOTION_DDOT": 0
      },
      "source": "celestrak",
      "source_url": "https://celestrak.org/NORAD/elements/gp.php?GROUP=IRIDIUM-NEXT&FORMAT=JSON",
      "catalog_fingerprint": "75f53801"
    },
    {
      "satellite_id": "P06-S03",
      "norad_id": 42809,
      "satellite_name": "IRIDIUM 126",
      "cospar_id": "2017-039G",
      "shell_id": "iridium-next-real-86.4deg-785km",
      "plane_id": 5,
      "slot_id": 2,
      "epoch": "2026-07-06T11:23:18.839040",
      "inclination": 86.3984,
      "raan": 345.57989999999995,
      "eccentricity": 0.0002134,
      "argument_of_perigee": 87.3863,
      "mean_anomaly": 272.7577,
      "mean_motion": 14.34217986,
      "bstar": 0.000030163,
      "status": "active",
      "raw_omm": {
        "OBJECT_NAME": "IRIDIUM 126",
        "OBJECT_ID": "2017-039G",
        "EPOCH": "2026-07-06T11:23:18.839040",
        "MEAN_MOTION": 14.34217986,
        "ECCENTRICITY": 0.0002134,
        "INCLINATION": 86.3984,
        "RA_OF_ASC_NODE": 345.5799,
        "ARG_OF_PERICENTER": 87.3863,
        "MEAN_ANOMALY": 272.7577,
        "EPHEMERIS_TYPE": 0,
        "CLASSIFICATION_TYPE": "U",
        "NORAD_CAT_ID": 42809,
        "ELEMENT_SET_NO": 999,
        "REV_AT_EPOCH": 47271,
        "BSTAR": 0.000030163,
        "MEAN_MOTION_DOT": 0.00000104,
        "MEAN_MOTION_DDOT": 0
      },
      "source": "celestrak",
      "source_url": "https://celestrak.org/NORAD/elements/gp.php?GROUP=IRIDIUM-NEXT&FORMAT=JSON",
      "catalog_fingerprint": "75f53801"
    },
    {
      "satellite_id": "P06-S04",
      "norad_id": 42804,
      "satellite_name": "IRIDIUM 123",
      "cospar_id": "2017-039B",
      "shell_id": "iridium-next-real-86.4deg-785km",
      "plane_id": 5,
      "slot_id": 3,
      "epoch": "2026-07-06T12:54:38.714112",
      "inclination": 86.3985,
      "raan": 345.547,
      "eccentricity": 0.0002041,
      "argument_of_perigee": 92.459,
      "mean_anomaly": 267.68399999999997,
      "mean_motion": 14.34217272,
      "bstar": 0.00009621,
      "status": "active",
      "raw_omm": {
        "OBJECT_NAME": "IRIDIUM 123",
        "OBJECT_ID": "2017-039B",
        "EPOCH": "2026-07-06T12:54:38.714112",
        "MEAN_MOTION": 14.34217272,
        "ECCENTRICITY": 0.0002041,
        "INCLINATION": 86.3985,
        "RA_OF_ASC_NODE": 345.547,
        "ARG_OF_PERICENTER": 92.459,
        "MEAN_ANOMALY": 267.684,
        "EPHEMERIS_TYPE": 0,
        "CLASSIFICATION_TYPE": "U",
        "NORAD_CAT_ID": 42804,
        "ELEMENT_SET_NO": 999,
        "REV_AT_EPOCH": 47272,
        "BSTAR": 0.00009621,
        "MEAN_MOTION_DOT": 0.00000289,
        "MEAN_MOTION_DDOT": 0
      },
      "source": "celestrak",
      "source_url": "https://celestrak.org/NORAD/elements/gp.php?GROUP=IRIDIUM-NEXT&FORMAT=JSON",
      "catalog_fingerprint": "75f53801"
    },
    {
      "satellite_id": "P06-S05",
      "norad_id": 43922,
      "satellite_name": "IRIDIUM 180",
      "cospar_id": "2019-002A",
      "shell_id": "iridium-next-real-86.4deg-785km",
      "plane_id": 5,
      "slot_id": 4,
      "epoch": "2026-07-06T12:45:30.882816",
      "inclination": 86.3982,
      "raan": 345.50970000000007,
      "eccentricity": 0.000224,
      "argument_of_perigee": 91.01920000000001,
      "mean_anomaly": 269.126,
      "mean_motion": 14.34217376,
      "bstar": 0.000059565,
      "status": "active",
      "raw_omm": {
        "OBJECT_NAME": "IRIDIUM 180",
        "OBJECT_ID": "2019-002A",
        "EPOCH": "2026-07-06T12:45:30.882816",
        "MEAN_MOTION": 14.34217376,
        "ECCENTRICITY": 0.000224,
        "INCLINATION": 86.3982,
        "RA_OF_ASC_NODE": 345.5097,
        "ARG_OF_PERICENTER": 91.0192,
        "MEAN_ANOMALY": 269.126,
        "EPHEMERIS_TYPE": 0,
        "CLASSIFICATION_TYPE": "U",
        "NORAD_CAT_ID": 43922,
        "ELEMENT_SET_NO": 999,
        "REV_AT_EPOCH": 39176,
        "BSTAR": 0.000059565,
        "MEAN_MOTION_DOT": 0.00000187,
        "MEAN_MOTION_DDOT": 0
      },
      "source": "celestrak",
      "source_url": "https://celestrak.org/NORAD/elements/gp.php?GROUP=IRIDIUM-NEXT&FORMAT=JSON",
      "catalog_fingerprint": "75f53801"
    }
  ]
}